{"type":"FeatureCollection","name":"MAUSAM Bihar district boundaries","features":[{"type":"Feature","id":"212","geometry":{"type":"Polygon","coordinates":[[[84.7021012295053,25.31509584064741],[84.71730378152282,25.32267920680607],[84.72665919814898,25.33390258872089],[84.73426047415774,25.353922675379756],[84.73484518769688,25.361809376184766],[84.74770888555786,25.382132797489973],[84.75560251833619,25.409432915661156],[84.76583500527106,25.419442958990594],[84.7789910599016,25.448866419686198],[84.77548277866678,25.458573128369288],[84.75618723187532,25.490726600882013],[84.75560251833619,25.504073325321258],[84.77197449743198,25.540170148236484],[84.79740953638436,25.565043589236893],[84.8105655910149,25.570806947517475],[84.82021336441065,25.581726994785946],[84.81524329932799,25.59295037670077],[84.82284457533676,25.62176716810368],[84.82752228364984,25.646033939811403],[84.84097069504995,25.658470660311608],[84.82225986179762,25.667570699701997],[84.82810699718897,25.678794081616815],[84.84711018721087,25.67909741626316],[84.85003375490655,25.699420837568375],[84.85295732260222,25.70882421160512],[84.8649439501545,25.71792425099551],[84.87459172355024,25.719440924227243],[84.87751529124591,25.711554223422233],[84.90324268696787,25.720350928166283],[84.90236561665917,25.710037550190506],[84.92458473114631,25.708520876958772],[84.93774078577687,25.702150849385497],[84.9500197700987,25.704577526556264],[84.9655146788858,25.71276756200762],[84.97165417104671,25.722170936044364],[84.99416564230343,25.7315743100811],[85.00585991308614,25.732787648666488],[85.02983316819069,25.731270975434754],[85.03948094158642,25.721867601398017],[85.06813190500405,25.711554223422233],[85.0812879596346,25.711554223422233],[85.09765993873039,25.682434097372976],[85.10263000381303,25.66241401071411],[85.11052363659137,25.648157282335823],[85.12455676153061,25.631777211433118],[85.13946695677856,25.625407183859842],[85.17454976912668,25.625103849213495],[85.1879981805268,25.62267717204272],[85.2333134798098,25.60478042790828],[85.24442303705337,25.597803731042312],[85.25699437814478,25.580513656200566],[85.27278164370144,25.563830250651506],[85.2903230498755,25.535923463187636],[85.29324661757119,25.528036762382627],[85.30552560189302,25.514083368650688],[85.33154535438455,25.508320010370106],[85.36692052350224,25.505589998552985],[85.37744536720668,25.499826640272403],[85.38913963798939,25.50012997491875],[85.3944020598416,25.50498332926029],[85.41106639570695,25.499826640272403],[85.42773073157232,25.499826640272403],[85.43299315342453,25.51074668754088],[85.44176385651157,25.517116715114156],[85.44965748928989,25.50498332926029],[85.47216896054661,25.4958832898699],[85.49292629118591,25.493759947345474],[85.50549763227733,25.48405323866239],[85.51192948120782,25.50194998279683],[85.54613522324723,25.50376999067491],[85.54438108262983,25.484356573308737],[85.58121803559536,25.485569911894117],[85.599051798539,25.48920992765028],[85.61600849117391,25.48314323472335],[85.59554351730418,25.474043195332953],[85.62273269687397,25.467673167759678],[85.64115117335673,25.460089801601015],[85.65489194152642,25.460999805540055],[85.65313780090901,25.479199884320842],[85.65518429829598,25.491939939467393],[85.6776957695527,25.494669951284514],[85.67915755340053,25.476469872503728],[85.6949448189572,25.484356573308737],[85.70137666788767,25.50012997491875],[85.71307093867038,25.510443352894534],[85.72359578237483,25.524093411980118],[85.73499769638796,25.52470008127281],[85.7455225400924,25.53471012460225],[85.76335630303603,25.543203494699945],[85.7817747795188,25.548056849041494],[85.8089639590886,25.544416833285332],[85.83732256573666,25.526520089150893],[85.83849199281494,25.517723384406843],[85.88965442748928,25.50012997491875],[85.89257799518495,25.47828988038181],[85.9031028388894,25.467066498466984],[85.89520920611106,25.45917979766198],[85.88263786501966,25.47343652604026],[85.87825251347614,25.46645982917429],[85.87825251347614,25.44856308503985],[85.87328244839348,25.438856376356767],[85.88439200563705,25.42399297868579],[85.90017927119371,25.420352962929634],[85.90602640658507,25.430969675551758],[85.9156741799808,25.420352962929634],[85.93935507831578,25.408522911722116],[85.95514234387244,25.409736250307503],[86.00396592439024,25.379706120319206],[86.0016270702337,25.373032758099583],[86.01273662747728,25.3627193801238],[86.02910860657306,25.364842722648227],[86.03261688780788,25.391839506173064],[86.0469423695167,25.39123283688037],[86.04752708305583,25.384559474660747],[86.06009842414724,25.359079364367645],[86.06565320276903,25.352406002148022],[86.06886912723428,25.337542604477044],[86.06448377569076,25.33390258872089],[86.05366657521675,25.339059277708778],[86.04021816381663,25.33390258872089],[86.03173981749917,25.308725813074133],[86.0206302602556,25.306905805196052],[86.02033790348604,25.29628909257393],[86.00630477854679,25.297502431159316],[86.00045764315543,25.306905805196052],[85.95046463555936,25.319645860342604],[85.93146144553745,25.321465868220685],[85.93263087261573,25.29932243903739],[85.90631876335463,25.29113240358604],[85.8966709899589,25.292952411464114],[85.8911162113371,25.278999017732176],[85.8642193885369,25.27960568702487],[85.86480410207602,25.293862415403154],[85.84053849020191,25.291435738232387],[85.83381428450184,25.287189053183532],[85.8089639590886,25.288099057122572],[85.8072098184712,25.306602470549706],[85.78791427167971,25.309332482366827],[85.78148242274924,25.313579167415675],[85.74084483177933,25.319645860342604],[85.73996776147061,25.332689250135502],[85.73061234484445,25.333295919428195],[85.72973527453576,25.346945978513787],[85.72154928498784,25.345429305282053],[85.71891807406175,25.362112710831113],[85.70371552204422,25.35847269507495],[85.70108431111811,25.34937265568456],[85.68646647263972,25.352406002148022],[85.68646647263972,25.344215966696666],[85.66834035292653,25.34391263205032],[85.66717092584827,25.337239269830697],[85.65810786599167,25.328139230440307],[85.65635372537426,25.310545820952214],[85.64056645981759,25.313579167415675],[85.64349002751328,25.32176920286703],[85.62770276195661,25.319645860342604],[85.62828747549575,25.33086924225742],[85.64319767074372,25.33390258872089],[85.64641359520895,25.342092624172246],[85.63208811350013,25.353316006087063],[85.63676582181321,25.36150604153842],[85.62507155103052,25.366662730526308],[85.62594862133922,25.378796116380165],[85.60489893393034,25.381526128197287],[85.5835568897519,25.390019498294983],[85.57654032728227,25.39608619122191],[85.57770975436054,25.411252923539237],[85.57098554866049,25.4188362896979],[85.55695242372124,25.424296313332135],[85.54701229355594,25.41792628575886],[85.52274668168182,25.42672299050291],[85.51777661659916,25.422476305454055],[85.50608234581645,25.42702632514925],[85.49672692919029,25.42581298656387],[85.48795622610326,25.444923069283696],[85.47713902562926,25.436126364539646],[85.44702627836378,25.442496392112922],[85.41311289309394,25.457966459076594],[85.40112626554165,25.458573128369288],[85.39907976815468,25.43278968342984],[85.37919950782408,25.427632994441943],[85.36750523704137,25.421566301515014],[85.35990396103261,25.401849549502494],[85.34762497671076,25.403669557380574],[85.33885427362374,25.409736250307503],[85.3338842085411,25.401546214856147],[85.3192663700627,25.405792899905002],[85.31341923467134,25.4012428802098],[85.30201732065821,25.40609623455135],[85.29470840141902,25.392749510112104],[85.28915362279723,25.39820953374634],[85.25787144845349,25.400332876270767],[85.25260902660126,25.414286270002698],[85.24354596674468,25.405489565258655],[85.2260045605706,25.40306288808788],[85.22571220380104,25.41398293535636],[85.20583194347043,25.41610627788078],[85.2043701596226,25.40912958101481],[85.19179881853118,25.40215288414884],[85.17922747743978,25.402456218795187],[85.18565932637026,25.382739466782667],[85.18419754252243,25.356046017904184],[85.18770582375724,25.349979324977248],[85.18595168313983,25.334205923367236],[85.17484212589626,25.305995801257012],[85.16080900095702,25.30296245479355],[85.14502173540035,25.31084915559856],[85.12660325891758,25.314489171354715],[85.11812491260012,25.294469084695848],[85.10760006889569,25.286885718537185],[85.11783255583056,25.27535900197602],[85.10438414443044,25.27050564763448],[85.10409178766088,25.27960568702487],[85.09093573303034,25.28840239176892],[85.07777967839979,25.278695683085836],[85.06433126699967,25.28324570278103],[85.04532807697777,25.28415570672007],[85.03012552496025,25.269898978341786],[85.01726182709928,25.272022320866213],[85.01960068125581,25.281729029549297],[85.01492297294273,25.29325574611046],[85.00498284277742,25.293862415403154],[85.00322870216002,25.317219183171837],[84.99416564230343,25.318432521757217],[84.99299621522516,25.309332482366827],[84.98305608505984,25.307815809135093],[84.97662423612937,25.29325574611046],[84.96171404088142,25.28931239570796],[84.94329556439865,25.289615730354306],[84.93540193162032,25.276875675207755],[84.92546180145501,25.269292309049092],[84.91815288221582,25.274752332683327],[84.92400001760717,25.289919065000653],[84.91990702283323,25.293862415403154],[84.903827400507,25.28931239570796],[84.89330255680257,25.280819025610256],[84.88862484848948,25.268078970463705],[84.8912560594156,25.257158923195234],[84.88277771309814,25.252305568853693],[84.86903694492845,25.23592549795098],[84.87079108554586,25.223792112097122],[84.85968152830229,25.224702116036163],[84.85646560383704,25.230162139670398],[84.82869171072811,25.22985880502405],[84.81173501809317,25.216815415231153],[84.79214711453214,25.223792112097122],[84.77635984897549,25.22500545068251],[84.76700443234932,25.21984876169462],[84.74332353401434,25.21408540341404],[84.73455283092731,25.20316535614556],[84.72578212784028,25.205592033316336],[84.72929040907509,25.22227543886539],[84.73689168508385,25.222578773511735],[84.74946302617526,25.229555470377704],[84.75764901572316,25.238352175121754],[84.76320379434495,25.230465474316745],[84.77548277866678,25.23683550189002],[84.78659233591036,25.23774550582906],[84.79068533068431,25.24987889168292],[84.78600762237123,25.25867559642697],[84.76612736204062,25.256855588548888],[84.76466557819279,25.263832285414857],[84.75384837771878,25.26352895076851],[84.74683181524915,25.269898978341786],[84.73747639862299,25.262315612183123],[84.73718404185342,25.253518907439073],[84.72519741430115,25.256248919256194],[84.7219814898359,25.26261894682947],[84.70531715397054,25.261405608244083],[84.6974235211922,25.255035580670807],[84.68689867748778,25.25988893501235],[84.69216109934,25.2726289901589],[84.70677893781838,25.273235659451593],[84.70794836489665,25.28233569884199],[84.72665919814898,25.285975714598145],[84.72607448460985,25.296895761866622],[84.71847320860108,25.29719909651297],[84.70824072166621,25.30508579731797],[84.7021012295053,25.31509584064741]]]},"properties":{"name":"Patna","lgd":212,"census":"230","state":"Bihar","state_lgd":10,"id":"IN-BR-D-212","source_name":"Patna","level":"district","parent_id":"IN-BR-S-10","mausam_level":"district","source_code":"212","parent_code":"10","display_name":"Patna","district_code":"212","state_code":"10"}},{"type":"Feature","id":"208","geometry":{"type":"Polygon","coordinates":[[[85.70546966266163,26.30639346490765],[85.70546966266163,26.294866748346486],[85.7157021495965,26.29244007117571],[85.71365565220952,26.272419984516844],[85.69962252727028,26.263016610480108],[85.7002072408094,26.250276555333556],[85.71716393344434,26.24906321674817],[85.71453272251823,26.24026651200412],[85.69991488403984,26.23905317341874],[85.69640660280503,26.22600978362584],[85.7066390897399,26.225403114333147],[85.71014737097471,26.21144972060121],[85.71774864698347,26.20174301191812],[85.72622699330094,26.198102996161964],[85.72096457144872,26.176566236271363],[85.72125692821828,26.164129515771158],[85.74172190208802,26.16079283466135],[85.75049260517505,26.149872787392873],[85.75107731871418,26.13925607477075],[85.73879833439234,26.12712268891689],[85.72798113391835,26.125606015685158],[85.7265193500705,26.113775964477647],[85.7165792199052,26.108922610136105],[85.71365565220952,26.08950919276993],[85.70897794389644,26.06797243287933],[85.70342316527466,26.059782397427973],[85.70254609496595,26.04643567298873],[85.69202125126151,26.047649011574116],[85.68237347786578,26.02762892491525],[85.67652634247443,26.029145598146982],[85.65576901183512,26.01852888552486],[85.64846009259593,26.003058818561186],[85.6379352488915,26.003058818561186],[85.63179575673057,25.996082121695217],[85.64056645981759,25.976668704329043],[85.63267282703927,25.97090534604846],[85.63208811350013,25.948458582218827],[85.64202824366544,25.941785219999204],[85.64027410304803,25.922068467986684],[85.62536390780008,25.91964179081591],[85.6116231396304,25.928135160913612],[85.59759001469115,25.922978471925724],[85.5826798194432,25.921765133340337],[85.56689255388653,25.926011818389185],[85.56104541849518,25.910541751425512],[85.54291929878198,25.912968428596287],[85.53677980662107,25.92146179869399],[85.5274243899949,25.920855129401296],[85.51426833536436,25.910541751425512],[85.4958498588816,25.90963174748648],[85.49263393441635,25.921158464047643],[85.47538488501185,25.930258503438033],[85.46895303608136,25.92661848768188],[85.44205621328113,25.92449514515745],[85.43328551019411,25.936931865657655],[85.40872754155042,25.939661877474776],[85.40171097908079,25.933595184547848],[85.38826256768067,25.931168507377073],[85.37072116150662,25.932685180608807],[85.36341224226743,25.940875216060164],[85.35113325794558,25.943908562523625],[85.3338842085411,25.954828609792102],[85.31429630498005,25.946031905048052],[85.28652241187112,25.949671920804207],[85.28886126602767,25.960591968072684],[85.29003069310593,25.999115468158685],[85.27161221662317,26.01337219653697],[85.25582495106651,26.011248854012543],[85.23974532874028,26.015192204415044],[85.2341905501185,26.00366548785388],[85.22308099287493,25.99941880280503],[85.20934022470524,26.006092165024654],[85.19589181330514,26.002148814622146],[85.17484212589626,26.010945519366196],[85.16197842803528,26.004272157146573],[85.15028415725257,26.003362153207533],[85.13215803753937,25.997295460280604],[85.11315484751748,26.00093547603676],[85.10496885796958,25.998812133512338],[85.10584592827828,25.981522058670585],[85.09619815488256,25.9809153893779],[85.07924146224762,25.97090534604846],[85.06637776438664,25.974242027158276],[85.05789941806918,25.98394873584136],[85.05731470453004,25.99183543664637],[85.03392616296463,25.997902129573298],[85.01580004325143,25.99486878310983],[85.00556755631656,26.007305503610034],[84.99182678814688,26.00882217684177],[84.98159430121201,26.00457549179292],[84.96873060335103,25.994565448463483],[84.96025225703357,25.99668879098791],[84.95557454872049,26.00851884219542],[84.93774078577687,26.015798873707737],[84.93218600715508,26.030055602086023],[84.93423250454205,26.050682358037584],[84.94329556439865,26.053715704501045],[84.94914269979,26.063725747830482],[84.94475734824648,26.072219117928178],[84.94797327271172,26.10346258650187],[84.93978728316384,26.108619275489758],[84.94124906701167,26.118932653465535],[84.91961466606367,26.136526062953628],[84.90996689266792,26.15472614173442],[84.91581402805929,26.164736185063852],[84.91786052544626,26.17868957879579],[84.90178090312003,26.198709665454658],[84.89359491357214,26.216606409589097],[84.90587389789398,26.225706448979494],[84.90441211404614,26.235716492308924],[84.88336242663726,26.232986480491803],[84.87196051262413,26.25694991755318],[84.87751529124591,26.26180327189472],[84.88102357248073,26.278486677443773],[84.88804013495036,26.299113433395334],[84.9020732598896,26.32611021692017],[84.90967453589836,26.32338020510305],[84.92078409314193,26.328536894090945],[84.94475734824648,26.327626890151905],[84.98013251736418,26.323076870456703],[84.98948793399035,26.33035690196902],[85.00001277769478,26.33308691378614],[85.01375354586446,26.328233559444598],[85.02398603279933,26.319740189346895],[85.03158730880808,26.323076870456703],[85.0359726603516,26.33399691772518],[85.04445100666906,26.341580283883843],[85.05994591545615,26.342793622469223],[85.07573318101281,26.332783579139793],[85.08274974348244,26.32429020904209],[85.10350707412175,26.324593543688437],[85.11081599336093,26.314583500359007],[85.11900198290883,26.317010177529774],[85.13625103231333,26.313066827127273],[85.14239052447425,26.323076870456703],[85.15262301140912,26.3151901696517],[85.16051664418744,26.319436854700548],[85.16314785511355,26.328536894090945],[85.18419754252243,26.33126690590806],[85.20232366223563,26.320953527932282],[85.20320073254433,26.30730346884669],[85.18858289406595,26.30366345309053],[85.18975232114421,26.29638342157822],[85.20027716484864,26.293350075114752],[85.22015742517925,26.300023437334374],[85.23214405273153,26.30123677591976],[85.25728673491435,26.296686756224567],[85.25670202137522,26.32702022085921],[85.26488801092312,26.342186953176537],[85.25699437814478,26.34491696499365],[85.23828354489245,26.34400696105461],[85.22951284180542,26.354017004384048],[85.21811092779228,26.357353685493855],[85.22571220380104,26.371307079225794],[85.24208418289683,26.364027047713478],[85.25407081044911,26.35007365398154],[85.26547272446224,26.352500331152314],[85.28067527647977,26.348556980749812],[85.28739948217982,26.353410335091354],[85.29763196911469,26.344613630347304],[85.30698738574085,26.349466984688846],[85.32774471638017,26.348253646103466],[85.32628293253232,26.335210256310567],[85.33973134393244,26.34491696499365],[85.36107338811088,26.346433638225385],[85.36955173442834,26.34188361853019],[85.37510651305013,26.324896878334783],[85.37481415628056,26.313673496419966],[85.39323263276333,26.307910138139384],[85.40171097908079,26.317616846822467],[85.40872754155042,26.314886835005353],[85.41486703371135,26.304270122383222],[85.40171097908079,26.30548346096861],[85.40317276292863,26.295170082992833],[85.39323263276333,26.291226732590324],[85.39147849214592,26.280913354614547],[85.40580397385474,26.284250035724362],[85.40931225508956,26.27272331916319],[85.42363773679837,26.28273336249263],[85.42656130449404,26.276970004212046],[85.4441027106681,26.27970001602916],[85.4604746897639,26.30032677198072],[85.46252118715087,26.32004352399324],[85.46602946838568,26.332480244493446],[85.47801609593796,26.33490692166422],[85.47918552301623,26.346433638225385],[85.49321864795547,26.354017004384048],[85.50140463750338,26.36281370912809],[85.50432820519906,26.380710453262537],[85.52011547075571,26.37434042568926],[85.54584286647767,26.36979040599406],[85.55695242372124,26.384957138311385],[85.57975625174751,26.393147173762742],[85.58209510590406,26.384350469018692],[85.57566325697357,26.36160037054271],[85.5853110303693,26.36160037054271],[85.59115816576066,26.355230342969428],[85.6116231396304,26.349770319335192],[85.61688556148262,26.34006361065211],[85.6350116811958,26.327626890151905],[85.62857983226533,26.319740189346895],[85.6595696498395,26.317010177529774],[85.67243334770048,26.312763492480926],[85.67798812632226,26.32004352399324],[85.69114418095282,26.317616846822467],[85.69377539187892,26.308516807432078],[85.70546966266163,26.30639346490765]]]},"properties":{"name":"Muzaffarpur","lgd":208,"census":"216","state":"Bihar","state_lgd":10,"id":"IN-BR-D-208","source_name":"Muzaffarpur","level":"district","parent_id":"IN-BR-S-10","mausam_level":"district","source_code":"208","parent_code":"10","display_name":"Muzaffarpur","district_code":"208","state_code":"10"}},{"type":"Feature","id":"213","geometry":{"type":"Polygon","coordinates":[[[85.25436316721867,26.758058753317535],[85.25845616199263,26.751385391097912],[85.25173195629256,26.73591532413424],[85.25904087553175,26.731061969792698],[85.25787144845349,26.71710857606076],[85.26079501614916,26.709525209902104],[85.26021030261003,26.691931800414004],[85.23945297197072,26.679191745267453],[85.23682176104461,26.66857503264533],[85.24471539382294,26.660081662547626],[85.25260902660126,26.670091705877063],[85.26722686507965,26.657048316084165],[85.27073514631446,26.64976828457185],[85.26342622707527,26.646431603462034],[85.27015043277532,26.62883819397394],[85.2695657192362,26.61609813882739],[85.25933323230132,26.61215478842489],[85.26196444322744,26.592438036412368],[85.24763896151862,26.57332795369254],[85.2324364095011,26.570901276521766],[85.23535997719677,26.561194567838683],[85.22074213871839,26.54906118198482],[85.216941500714,26.537231130777307],[85.22278863610536,26.531467772496725],[85.21928035487055,26.520244390581908],[85.22132685225752,26.504167654325542],[85.19969245130952,26.499010965337654],[85.18478225606157,26.499010965337654],[85.17835040713108,26.487787583422836],[85.18361282898329,26.474137524337245],[85.19881538100081,26.46685749282493],[85.19998480807908,26.459577461312612],[85.2143102897879,26.448657414044142],[85.20700137054871,26.42590731556816],[85.22629691734018,26.425300646275467],[85.25874851876219,26.413773929714296],[85.25027017244473,26.40831390608006],[85.25260902660126,26.399820535982364],[85.26371858384483,26.392843839116395],[85.28272177386674,26.39557385093351],[85.28330648740588,26.38162045720157],[85.29061540664506,26.37161041387214],[85.27979820617107,26.368273732762326],[85.28067527647977,26.348556980749812],[85.26547272446224,26.352500331152314],[85.25407081044911,26.35007365398154],[85.24208418289683,26.364027047713478],[85.22571220380104,26.371307079225794],[85.21811092779228,26.357353685493855],[85.22951284180542,26.354017004384048],[85.23828354489245,26.34400696105461],[85.25699437814478,26.34491696499365],[85.26488801092312,26.342186953176537],[85.25670202137522,26.32702022085921],[85.25728673491435,26.296686756224567],[85.23214405273153,26.30123677591976],[85.22015742517925,26.300023437334374],[85.20027716484864,26.293350075114752],[85.18975232114421,26.29638342157822],[85.18858289406595,26.30366345309053],[85.20320073254433,26.30730346884669],[85.20232366223563,26.320953527932282],[85.18419754252243,26.33126690590806],[85.16314785511355,26.328536894090945],[85.16051664418744,26.319436854700548],[85.15262301140912,26.3151901696517],[85.14239052447425,26.323076870456703],[85.13625103231333,26.313066827127273],[85.11900198290883,26.317010177529774],[85.11081599336093,26.314583500359007],[85.10350707412175,26.324593543688437],[85.08274974348244,26.32429020904209],[85.07573318101281,26.332783579139793],[85.05994591545615,26.342793622469223],[85.04445100666906,26.341580283883843],[85.0359726603516,26.33399691772518],[85.03158730880808,26.323076870456703],[85.02398603279933,26.319740189346895],[85.01375354586446,26.328233559444598],[85.00001277769478,26.33308691378614],[84.98948793399035,26.33035690196902],[84.98013251736418,26.323076870456703],[84.94475734824648,26.327626890151905],[84.92078409314193,26.328536894090945],[84.90967453589836,26.32338020510305],[84.9020732598896,26.32611021692017],[84.88804013495036,26.299113433395334],[84.88102357248073,26.278486677443773],[84.87751529124591,26.26180327189472],[84.87196051262413,26.25694991755318],[84.85617324706747,26.270296641992424],[84.83629298673686,26.279396681382813],[84.80618023947139,26.28576670895609],[84.80910380716708,26.294866748346486],[84.80764202331923,26.320953527932282],[84.78542290883209,26.33703026418864],[84.76203436726668,26.346433638225385],[84.75121716679267,26.354017004384048],[84.73045983615336,26.375250429628295],[84.72256620337504,26.399517201336018],[84.71847320860108,26.40133720921409],[84.71233371644017,26.42712065415354],[84.69537702380524,26.433490681726816],[84.67988211501816,26.443500725056253],[84.6658489900789,26.45775745343454],[84.65532414637447,26.46443081565416],[84.63018146419165,26.457454118788192],[84.62638082618726,26.45169076050761],[84.59656043569136,26.435310689604897],[84.5898362299913,26.449567417983182],[84.59042094353043,26.457454118788192],[84.57346425089551,26.470194173934743],[84.57755724566945,26.486270910191102],[84.5617699801128,26.4953709495815],[84.5544610608736,26.482024225142254],[84.53867379531695,26.48566424089841],[84.54481328747788,26.495674284227846],[84.53575022762128,26.51417769765498],[84.51528525375154,26.531771107143072],[84.51060754543846,26.533287780374806],[84.51499289698197,26.55664454814348],[84.51206932928629,26.567867930058306],[84.49715913403834,26.57059794187542],[84.4848801497165,26.593348040351408],[84.49072728510785,26.60335808368084],[84.50505276681668,26.602448079741798],[84.51353111313414,26.59729139075391],[84.52610245422554,26.60608809549796],[84.51996296206462,26.61609813882739],[84.54422857393874,26.653104965681656],[84.57755724566945,26.670698375169756],[84.59597572215222,26.674641725572258],[84.60123814400444,26.682831761023614],[84.60036107369574,26.694661812231125],[84.63953688081781,26.69011179253593],[84.63982923758738,26.681618422438227],[84.65649357345274,26.68131508779188],[84.67169612547025,26.700728505158054],[84.67958975824858,26.69830182798728],[84.69069931549215,26.713771894950952],[84.70122415919658,26.71710857606076],[84.70385537012271,26.73470198554886],[84.71935027890979,26.741072013122135],[84.7228585601446,26.74986871786618],[84.71818085183152,26.756238745439454],[84.7219814898359,26.765035450183504],[84.71613435444455,26.778078839976402],[84.72139677629676,26.789605556537566],[84.73367576061861,26.79415557623276],[84.74361589078391,26.807502300672006],[84.7409846798578,26.821152359757598],[84.72636684137942,26.821152359757598],[84.72519741430115,26.833589080257802],[84.73367576061861,26.842992454294546],[84.71935027890979,26.84572246611166],[84.71145664613147,26.85360916691667],[84.71671906798369,26.85846252125821],[84.70444008366184,26.866045887416874],[84.70063944565746,26.87514592680727],[84.69040695872259,26.875752596099964],[84.68163625563555,26.895469348112485],[84.68163625563555,26.916702773356732],[84.69830059150092,26.92064612375924],[84.69888530504005,26.939756206479068],[84.70970250551406,26.940969545064455],[84.72490505753157,26.956742946674467],[84.74156939339693,26.955226273442733],[84.74858595586656,26.964932982125823],[84.74478531786218,26.974033021516213],[84.74770888555786,26.98677307666277],[84.75969551311013,26.998603127870282],[84.75852608603186,27.003456482211824],[84.77314392451025,27.01771321059011],[84.78279169790598,27.014073194833948],[84.79390125514955,26.99587311605316],[84.81582801286713,27.020443222407224],[84.82547578626287,27.021049891699917],[84.8541267496805,27.008309836553366],[84.85734267414574,26.990413092418926],[84.86435923661537,26.984346399491997],[84.88511656725467,26.978583041211415],[84.89184077295474,26.972819682930833],[84.9093821791288,26.967966328589284],[84.93364779100291,26.967662993942938],[84.9535280513335,26.960079627784282],[84.96259111119011,26.96038296243063],[84.97837837674678,26.940059541125414],[84.97019238719888,26.92853282456425],[84.970777100738,26.91700610800308],[85.00001277769478,26.91184941901519],[85.00498284277742,26.89486267881979],[85.05292935298652,26.88909932053921],[85.05614527745178,26.8812126197342],[85.03071023849938,26.873932588221884],[85.03071023849938,26.85846252125821],[85.05760706129962,26.849059147221475],[85.07427139716498,26.855732509441097],[85.083042100252,26.853912501563016],[85.09999879288694,26.871202576404762],[85.1400516703177,26.871202576404762],[85.16782556342663,26.86847256458765],[85.18975232114421,26.869989237819382],[85.19296824560945,26.866045887416874],[85.19121410499206,26.830859068440688],[85.17688862328323,26.81508566683067],[85.18244340190502,26.800828938452383],[85.19179881853118,26.791425564415647],[85.19150646176162,26.782022190378903],[85.19735359715297,26.7695854698787],[85.2125561491705,26.758058753317535],[85.2324364095011,26.762305438366383],[85.25436316721867,26.758058753317535]]]},"properties":{"name":"East Champaran","lgd":213,"census":"204","state":"Bihar","state_lgd":10,"id":"IN-BR-D-213","source_name":"Purbi Champaran","level":"district","parent_id":"IN-BR-S-10","mausam_level":"district","source_code":"213","parent_code":"10","display_name":"East Champaran","district_code":"213","state_code":"10"}}]}
