{"type":"FeatureCollection","name":"MAUSAM Bihar state boundaries","features":[{"type":"Feature","id":"10","geometry":{"type":"Polygon","coordinates":[[[83.50314611750818,24.52551575620756],[83.49817605242552,24.53764914206142],[83.52214930753007,24.547659185390856],[83.52244166429965,24.554635882256825],[83.528288799691,24.561612579122794],[83.53033529707797,24.58193600042801],[83.52478051845618,24.588002693354937],[83.52273402106921,24.59861940597706],[83.5300429403084,24.611966130416306],[83.54144485432154,24.612572799709],[83.54787670325203,24.623189512331123],[83.54378370847809,24.62834620131901],[83.53150472415624,24.626829528087285],[83.52653465907359,24.6295595399044],[83.5300429403084,24.641996260404603],[83.52068752368224,24.641086256465563],[83.50051490658207,24.65200630373404],[83.50402318781688,24.666263032112326],[83.52039516691266,24.677486414027143],[83.50168433366034,24.693259815637155],[83.49817605242552,24.70357319361294],[83.48501999779498,24.702056520381205],[83.48560471133412,24.716009914113144],[83.4894053493385,24.736333335418358],[83.47040215931659,24.73238998501585],[83.45783081822518,24.73329998895489],[83.44701361775118,24.740883355113553],[83.4414588391294,24.756353422077225],[83.42801042772928,24.7627234496505],[83.41280787571176,24.775160170150706],[83.39672825338553,24.77880018590686],[83.39117347476375,24.789113563882637],[83.39935946431164,24.796090260748606],[83.39380468568986,24.803976961553616],[83.40140596169861,24.81247033165132],[83.40140596169861,24.818840359224595],[83.39497411276812,24.826727060029604],[83.39263525861159,24.840680453761536],[83.38649576645066,24.84007378446885],[83.38035627428974,24.847960485273852],[83.37684799305494,24.86009387112771],[83.3689543602766,24.862520548298484],[83.35755244626347,24.871013918396187],[83.36836964673746,24.877080611323116],[83.36164544103741,24.88466397748178],[83.36486136550266,24.890730670408708],[83.35462887856778,24.904987398786986],[83.36281486811568,24.909537418482188],[83.36281486811568,24.92804083190932],[83.36456900873308,24.93805087523875],[83.36106072749828,24.942297560287606],[83.36047601395914,24.95564428472685],[83.34293460778508,24.964440989470894],[83.34351932132421,24.981124395019954],[83.35258238118081,24.99659446198362],[83.3499511702547,25.00933451713017],[83.33591804531545,25.013884536825373],[83.32656262868929,25.012974532886332],[83.3201307797588,25.01722121793518],[83.32422377453275,25.037241304594048],[83.33562568854589,25.05089136367964],[83.34322696455465,25.05089136367964],[83.34030339685897,25.06878810781408],[83.34118046716767,25.08152816296063],[83.34673524578946,25.086381517302172],[83.3508282405634,25.105188265375652],[83.3499511702547,25.11337830082701],[83.36339958165482,25.11125495830258],[83.36603079258093,25.12520835203452],[83.36281486811568,25.14189175758358],[83.36339958165482,25.153418474144743],[83.35141295410254,25.157058489900898],[83.35638301918519,25.17768524585246],[83.35287473795037,25.1785952497915],[83.35521359210692,25.19649199392594],[83.36632314935049,25.19527865534055],[83.37275499828098,25.200435344328447],[83.38357219875499,25.20316535614556],[83.39760532369424,25.21620874593846],[83.40929959447695,25.230162139670398],[83.40637602678127,25.23774550582906],[83.41573144340744,25.24987889168292],[83.42187093556836,25.246542210573104],[83.43268813604236,25.250485560975612],[83.43882762820328,25.257765592487928],[83.45022954221642,25.261102273597736],[83.46338559684696,25.250485560975612],[83.47624929470794,25.260495604305042],[83.47683400824708,25.271718986219867],[83.48472764102542,25.278695683085836],[83.51659452890829,25.28536904530545],[83.53442829185192,25.297502431159316],[83.5373518595476,25.303569124086245],[83.55401619541296,25.308422478427786],[83.56161747142171,25.313579167415675],[83.58646779683497,25.31600584458645],[83.58763722391325,25.322072537513378],[83.60810219778298,25.331475911550115],[83.62973659873099,25.329959238318388],[83.63529137735277,25.343002628111286],[83.64260029659197,25.33966594700147],[83.6522480699877,25.346945978513787],[83.64903214552245,25.353922675379756],[83.65984934599646,25.36362938406284],[83.66715826523566,25.3627193801238],[83.68791559587495,25.366966065172655],[83.69463980157502,25.371212750221503],[83.68440731464014,25.38122279355094],[83.69434744480544,25.385772813246135],[83.70165636404464,25.39608619122191],[83.7101347103621,25.38607614789248],[83.71744362960129,25.397602864453646],[83.73001497069271,25.397602864453646],[83.73410796546665,25.40609623455135],[83.74229395501455,25.41003958495385],[83.74667930655806,25.400636210917114],[83.75486529610596,25.404276226673268],[83.75778886380164,25.38941282900229],[83.76772899396694,25.38637948253883],[83.77123727520176,25.396996195160952],[83.79111753553235,25.397602864453646],[83.80778187139771,25.40912958101481],[83.81450607709778,25.421262966868667],[83.80222709277592,25.42490298262483],[83.82561563434135,25.435519695246953],[83.83350926711967,25.430969675551758],[83.84637296498065,25.434306356661565],[83.84344939728497,25.445833073222737],[83.8241538504935,25.446439742515423],[83.81216722294123,25.448866419686198],[83.8150907906369,25.46039313624736],[83.82356913695438,25.465853159881597],[83.8340939806588,25.457966459076594],[83.85660545191553,25.468583171698718],[83.863037300846,25.483446569369697],[83.8694691497765,25.486479915833158],[83.87765513932439,25.50285998673587],[83.87414685808957,25.509533348955493],[83.87619335547656,25.51802671905319],[83.89431947518975,25.51984672693127],[83.90455196212463,25.526520089150893],[83.91419973552036,25.545326837224373],[83.93027935784659,25.55746022307823],[83.95659146710767,25.569593608932088],[84.01710931840819,25.614487136591364],[84.04605263859538,25.62692385709157],[84.0811354509435,25.636327231128313],[84.08522844571746,25.651797298091985],[84.07528831555216,25.694264148580487],[84.08902908372184,25.713070896653967],[84.10510870604806,25.721260932105324],[84.13522145331353,25.723990943922438],[84.13902209131791,25.71580090847109],[84.15042400533105,25.719137589580896],[84.154517000105,25.727327625032252],[84.17001190889209,25.722777605337058],[84.17439726043561,25.717620916349162],[84.19895522907929,25.702150849385497],[84.20597179154892,25.669390707580078],[84.22322084095342,25.66241401071411],[84.27438327562776,25.663020680006802],[84.2767221297843,25.66029066818968],[84.29455589272793,25.66120067212872],[84.29923360104101,25.671817384750852],[84.32437628322384,25.670907380811812],[84.32963870507605,25.708520876958772],[84.32846927799778,25.731877644727447],[84.3363629107761,25.744314365227652],[84.36472151742417,25.742494357349578],[84.37524636112862,25.735214325837262],[84.38489413452434,25.747651046337467],[84.39366483761138,25.744314365227652],[84.3843094209852,25.732787648666488],[84.40009668654187,25.72945096755668],[84.40652853547236,25.716104243117435],[84.40097375685056,25.708217542312426],[84.40682089224192,25.698510833629335],[84.42757822288124,25.693657479287793],[84.43079414734648,25.711250888775886],[84.46207632169022,25.709127546251466],[84.46616931646417,25.695477487165874],[84.47084702477724,25.687287451714518],[84.49365085280353,25.69092746747068],[84.49189671218612,25.676367404446047],[84.49920563142531,25.674547396567966],[84.50826869128191,25.681524093433936],[84.51996296206462,25.674850731214313],[84.52873366515165,25.682434097372976],[84.53458080054301,25.724294278568784],[84.53955086562566,25.72672095573956],[84.53516551408214,25.69092746747068],[84.54569035778658,25.688197455653558],[84.55767698533886,25.679704085555855],[84.5617699801128,25.685770778482784],[84.56440119103891,25.71792425099551],[84.56030819626497,25.737034333715336],[84.60036107369574,25.738247672300723],[84.61117827416975,25.730967640788407],[84.6287196803438,25.726114286446865],[84.63456681573516,25.727934294324946],[84.62988910742207,25.742494357349578],[84.62228783141332,25.749774388861887],[84.60942413355234,25.755537747142476],[84.6062082090871,25.76130110542306],[84.60737763616537,25.77131114875249],[84.6135171283263,25.775861168447683],[84.62345725849158,25.770704479459795],[84.62345725849158,25.793151243289437],[84.58165024044341,25.825001381155815],[84.5509527796388,25.840774782765827],[84.54861392548226,25.82864139691197],[84.53048780576906,25.831674743375437],[84.53078016253863,25.85351483791238],[84.52317888652986,25.860188200132],[84.53370373023431,25.86413155053451],[84.53399608700387,25.876264936388367],[84.51060754543846,25.871714916693172],[84.48955785802958,25.888398322242224],[84.47230880862509,25.881724960022602],[84.46002982430325,25.88961166082761],[84.45447504568146,25.88779165294953],[84.43664128273782,25.891735003352032],[84.42757822288124,25.89112833405934],[84.42494701195511,25.90174504668147],[84.41383745471154,25.922978471925724],[84.41179095732457,25.930865172730726],[84.38723298868089,25.937235200304002],[84.35390431695018,25.958771960194603],[84.31180494213243,25.943908562523625],[84.29689474688448,25.94512190110901],[84.28227690840609,25.958771960194603],[84.24485524190142,25.975758700390003],[84.23754632266223,25.986072078365787],[84.20655650508806,25.998812133512338],[84.19632401815318,25.98789208624386],[84.176151401053,25.996385456341564],[84.17001190889209,25.98758875159752],[84.17235076304863,26.024595578451788],[84.1372679507005,26.052199031269318],[84.12118832837429,26.076465802977033],[84.10393927896979,26.09284587387974],[84.08873672695228,26.100125905392055],[84.05599276876069,26.100125905392055],[84.0486838495215,26.110439283367832],[84.0513150604476,26.12712268891689],[84.04342142766927,26.134706055075554],[84.02734180534306,26.142289421234217],[84.03435836781267,26.15108612597826],[84.03289658396484,26.161399503954044],[84.0197405293343,26.16685952758828],[84.01009275593856,26.174442893746942],[84.00804625855159,26.18748628353984],[84.01652460486905,26.195979653637536],[84.02851123242132,26.19567631899119],[84.03786664904749,26.20174301191812],[84.03201951365614,26.20932637807678],[84.02938830273003,26.219943090698905],[84.01535517779078,26.22327977180872],[84.01213925332553,26.23207647655277],[84.01915581579516,26.23905317341874],[84.03815900581706,26.23692983089431],[84.042252000591,26.229953134028342],[84.0513150604476,26.229043130089302],[84.06008576353463,26.223583106455067],[84.0802583806348,26.22236976786968],[84.087567299874,26.23025646867469],[84.11738769036991,26.24026651200412],[84.11680297683077,26.249669886040863],[84.12001890129602,26.258163256138566],[84.13229788561786,26.2590732600776],[84.14750043763537,26.255129909675098],[84.16153356257463,26.25694991755318],[84.17673611459215,26.265746622297222],[84.17439726043561,26.292136736529365],[84.17732082813129,26.30245011450515],[84.1852144609096,26.3151901696517],[84.17352019012691,26.331570240554406],[84.17293547658777,26.353410335091354],[84.17585904428344,26.36069036660367],[84.17556668751388,26.372823752457528],[84.16241063288334,26.375553764274642],[84.13756030747008,26.377980441445416],[84.1355138100831,26.38162045720157],[84.12235775545255,26.384957138311385],[84.08873672695228,26.386777146189466],[84.08318194833049,26.381923791847917],[84.06827175308253,26.388293819421193],[84.06564054215642,26.396180520226203],[84.03991314643446,26.41013391395814],[84.03494308135181,26.419537287994885],[84.02266409702997,26.430760669909702],[84.0232488105691,26.441377382531826],[84.01681696163863,26.447444075458755],[84.00775390178202,26.444107394348947],[83.99635198776888,26.445624067580674],[83.99138192268623,26.432277343141436],[83.98114943575136,26.432884012434123],[83.96565452696427,26.43682736283663],[83.9463589801728,26.438647370714712],[83.91069145428554,26.44987075262953],[83.90952202720727,26.47565419756898],[83.91244559490295,26.497797626752266],[83.91507680582906,26.502954315740162],[83.90601374597246,26.512661024423245],[83.93115642815528,26.520244390581908],[83.94021948801188,26.52509774492345],[83.94723605048151,26.518424382703827],[83.94899019109891,26.51023434725247],[83.97208637589476,26.51023434725247],[83.97150166235562,26.517514378764787],[83.98056472221222,26.531771107143072],[83.9925513497645,26.533287780374806],[84.00687683147332,26.525401079569797],[84.02500295118651,26.532377776435766],[84.04809913598237,26.536321126838267],[84.05599276876069,26.54390449299693],[84.05511569845198,26.558464556021562],[84.06622525569556,26.576967969448695],[84.07558067232172,26.58333799702197],[84.08318194833049,26.592438036412368],[84.08990615403054,26.606998099436993],[84.08815201341314,26.636118225486257],[84.13054374500045,26.633388213669136],[84.1363908803918,26.636118225486257],[84.15919470841808,26.636118225486257],[84.15685585426155,26.62580484751048],[84.16913483858339,26.622771501047012],[84.20129408323584,26.62489484357144],[84.2278985492665,26.617614812059124],[84.2395928200492,26.61003144590046],[84.2676590699277,26.605481426205266],[84.26795142669727,26.601538075802758],[84.28461576256262,26.599718067924684],[84.2857851896409,26.605784760851613],[84.30011067134971,26.603661418327185],[84.30332659581495,26.614581465595656],[84.31414379628896,26.61518813488835],[84.31911386137162,26.611548119132195],[84.35390431695018,26.62004148922989],[84.37875464236342,26.614581465595656],[84.38606356160261,26.621558162461625],[84.3998043297723,26.624591508925093],[84.40623617870278,26.62307483569336],[84.4196845901029,26.62610818215682],[84.4097444599376,26.64673493810838],[84.41032917347674,26.67039504052341],[84.37670814497645,26.67737173738938],[84.35010367894579,26.677978406682065],[84.32993106184563,26.684045099608994],[84.32583806707167,26.7140752295973],[84.31823679106292,26.73197197373174],[84.30595780674108,26.74956538321983],[84.2857851896409,26.74986871786618],[84.27555270270602,26.74198201706117],[84.26619728607986,26.739858674536748],[84.25625715591457,26.72681528474385],[84.2495329502145,26.729241961914617],[84.24017753358834,26.739252005244055],[84.23257625757958,26.753812068268687],[84.25011766375364,26.773832154927554],[84.25713422622326,26.78930222189122],[84.26005779391895,26.806895631379312],[84.25421065852758,26.812355655013555],[84.25362594498844,26.825095710160106],[84.26064250745807,26.829342395208954],[84.26181193453635,26.8426891196482],[84.25421065852758,26.856642513380137],[84.23403804142741,26.8681692299413],[84.2188354894099,26.871202576404762],[84.210649499862,26.8642258795388],[84.19018452599227,26.85846252125821],[84.18316796352264,26.846935804697047],[84.18667624475745,26.84177911570916],[84.18229089321393,26.83389241490415],[84.16621127088771,26.83389241490415],[84.14925457825278,26.8426891196482],[84.14048387516576,26.85269916297763],[84.14019151839618,26.866652556709568],[84.14691572409625,26.871809245697456],[84.143699799631,26.88030261579516],[84.13142081530916,26.884549300844007],[84.12966667469175,26.89304267094171],[84.1165106200612,26.888492651246516],[84.11592590652207,26.894559344173445],[84.1074475602046,26.896986021344212],[84.10686284666546,26.887885981953822],[84.10013864096541,26.87696593468535],[84.08698258633487,26.881515954380546],[84.07967366709568,26.877875938624385],[84.06710232600426,26.888492651246516],[84.05248448752587,26.906389395380955],[84.0595010499955,26.917309442649426],[84.05336155783458,26.92974616314963],[84.04429849797798,26.931262836381364],[84.04488321151712,26.94036287577176],[84.03406601104311,26.93854286789368],[84.04605263859538,26.95249626162562],[84.05336155783458,26.95552960808908],[84.05423862814328,26.972819682930833],[84.04692970890409,26.980403049089496],[84.05628512553025,26.99010975777258],[84.04576028182582,27.004973155443558],[84.03728193550836,27.009219840492406],[84.04312907089971,27.01498319877299],[84.0495609198302,27.035003285431856],[84.04576028182582,27.045923332700326],[84.031434800117,27.04561999805398],[84.01798638871689,27.055933376029763],[84.00570740439504,27.06018006107861],[83.99986026900369,27.069583435115355],[84.01623224809948,27.07140344299343],[84.02880358919089,27.087176844603448],[84.0305577298083,27.094456876115764],[84.02207938349083,27.104163584798847],[84.01652460486905,27.105376923384235],[84.00863097209073,27.099310230457306],[84.00307619346893,27.10173690762808],[83.98728892791227,27.09021019106691],[83.97851822482525,27.090816860359602],[83.95571439679897,27.08414349813998],[83.94665133694237,27.09021019106691],[83.94752840725107,27.11174695095751],[83.95922267803378,27.121756994286947],[83.9627309592686,27.128127021860223],[83.95863796449464,27.136317057311572],[83.97530230036,27.155730474677746],[83.97881058159481,27.164830514068143],[83.99313606330364,27.173323884165846],[83.98699657114271,27.19759065587356],[83.97530230036,27.204870687385878],[83.96740866758168,27.213060722837227],[83.97003987850779,27.223980770105705],[83.95571439679897,27.235204152020522],[83.92326279537696,27.241877514240144],[83.91186088136382,27.245820864642646],[83.90513667566375,27.257650915850157],[83.90455196212463,27.272514313521135],[83.92969464430745,27.292534400180003],[83.93407999585096,27.29981443169232],[83.93378763908139,27.308307801790022],[83.92560164953349,27.32135119158292],[83.9165385896769,27.32650788057081],[83.90396724858549,27.32650788057081],[83.89168826426365,27.32044118764388],[83.87151564716348,27.307094463204635],[83.8604060899199,27.30770113249733],[83.85222010037201,27.31740784118041],[83.84549589467196,27.31528449865599],[83.83643283481535,27.322261195521953],[83.86069844668947,27.33439458137582],[83.86391437115472,27.34713463652237],[83.88087106378964,27.366548053888543],[83.88320991794617,27.376558097217973],[83.87473157162871,27.387478144486444],[83.86362201438514,27.3917248295353],[83.85660545191553,27.404161550035504],[83.83906404574145,27.417811609121095],[83.8332169103501,27.42509164063341],[83.84286468374584,27.441775046182464],[83.85572838160681,27.445718396584965],[83.87093093362434,27.436011687901882],[83.91215323813339,27.440561707597077],[83.93349528231182,27.450571750926514],[83.94021948801188,27.448751743048433],[83.94518955309454,27.441471711536117],[83.96565452696427,27.446021731231312],[83.97910293836438,27.439955038304383],[83.99489020392105,27.446021731231312],[84.00015262577325,27.441775046182464],[84.02383352410824,27.432978341438414],[84.0323118704257,27.441775046182464],[84.05073034690847,27.442685050121504],[84.06096283384333,27.452695093450934],[84.05979340676507,27.46088512890229],[84.06622525569556,27.469378498999994],[84.06944118016081,27.48060188091481],[84.08259723479135,27.483028558085586],[84.09487621911319,27.489095251012515],[84.09984628419585,27.510328676256762],[84.0975074300393,27.51548536524465],[84.10540106281763,27.52124872352524],[84.11680297683077,27.519125381000812],[84.12411189606996,27.510935345549456],[84.13872973454835,27.517608707769078],[84.15100871887019,27.516698703830038],[84.15013164856148,27.501228636866372],[84.14691572409625,27.494858609293097],[84.14866986471365,27.48666857384174],[84.16299534642246,27.484241896670966],[84.17527433074432,27.474231853341536],[84.18696860152701,27.469985168292688],[84.19456987753577,27.473321849402495],[84.20538707800978,27.470288502939034],[84.20948007278373,27.465738483243832],[84.20714121862719,27.457245113146136],[84.20831064570547,27.44298838476785],[84.22117434356643,27.44207838082881],[84.22088198679687,27.44814507375574],[84.23111447373174,27.456335109207096],[84.23725396589266,27.452695093450934],[84.25421065852758,27.45390843203632],[84.26005779391895,27.44541506193862],[84.25830365330154,27.439955038304383],[84.27350620531905,27.428124987096872],[84.27847627040171,27.415688266596668],[84.27613741624516,27.40173487286473],[84.29250939534096,27.38474813266933],[84.30040302811929,27.390511490949912],[84.31940621814118,27.381411451559515],[84.32817692122822,27.38080478226682],[84.34747246801967,27.374738089339893],[84.36442916065461,27.373221416108166],[84.37349222051121,27.376558097217973],[84.3889871292983,27.371401408230085],[84.44044192074222,27.370491404291045],[84.44804319675097,27.36290803813238],[84.45739861337714,27.36199803419334],[84.47055466800768,27.354718002681025],[84.47727887370775,27.362301368839688],[84.48721900387304,27.358358018437187],[84.5138234699037,27.352594660156605],[84.54656742809529,27.348651309754096],[84.55475341764318,27.348954644400443],[84.59480629507395,27.3401579396564],[84.60445406846969,27.33651792390024],[84.62199547464374,27.336821258546586],[84.63573624281344,27.318014510473105],[84.65123115160051,27.292231065533656],[84.68982224518345,27.222767431520317],[84.68719103425734,27.20881403778838],[84.68017447178772,27.20001733304433],[84.68280568271382,27.191220628300286],[84.67725090409203,27.162707171543715],[84.68163625563555,27.159370490433908],[84.68339039625296,27.14329375417754],[84.67754326086161,27.13328371084811],[84.67695854732247,27.115083632067325],[84.66964962808328,27.109623608433083],[84.67520440670506,27.104466919445194],[84.65590885991361,27.07929014379844],[84.64655344328743,27.074436789456897],[84.64275280528305,27.059573391785918],[84.64655344328743,27.051990025627255],[84.6433375188222,27.046226667346673],[84.68163625563555,27.031666604322048],[84.70122415919658,27.027116584626846],[84.71964263567935,27.01498319877299],[84.73250633354033,27.014376529480295],[84.75677194541446,27.00284981291913],[84.76495793496235,27.013163190894907],[84.77314392451025,27.01771321059011],[84.78279169790598,27.014073194833948],[84.7880541197582,27.0058831593826],[84.7862999791408,26.998603127870282],[84.79390125514955,26.99587311605316],[84.79916367700177,27.003456482211824],[84.81582801286713,27.020443222407224],[84.82547578626287,27.021049891699917],[84.8541267496805,27.008309836553366],[84.85734267414574,26.990413092418926],[84.86435923661537,26.984346399491997],[84.88511656725467,26.978583041211415],[84.89184077295474,26.972819682930833],[84.9093821791288,26.967966328589284],[84.93364779100291,26.967662993942938],[84.9535280513335,26.960079627784282],[84.96259111119011,26.96038296243063],[84.97837837674678,26.940059541125414],[84.97019238719888,26.92853282456425],[84.970777100738,26.91700610800308],[85.00001277769478,26.91184941901519],[85.00498284277742,26.89486267881979],[85.05292935298652,26.88909932053921],[85.05614527745178,26.8812126197342],[85.03071023849938,26.873932588221884],[85.03071023849938,26.85846252125821],[85.02369367602977,26.85542917479475],[85.05760706129962,26.849059147221475],[85.07427139716498,26.855732509441097],[85.083042100252,26.853912501563016],[85.09999879288694,26.871202576404762],[85.12367969122191,26.87150591105111],[85.13508160523506,26.867865895294955],[85.1400516703177,26.871202576404762],[85.16782556342663,26.86847256458765],[85.18975232114421,26.869989237819382],[85.19296824560945,26.866045887416874],[85.19092174822248,26.846329135404353],[85.19121410499206,26.830859068440688],[85.17688862328323,26.81508566683067],[85.18244340190502,26.800828938452383],[85.18068926128761,26.795672249464495],[85.19179881853118,26.791425564415647],[85.19150646176162,26.782022190378903],[85.19735359715297,26.7695854698787],[85.2125561491705,26.758058753317535],[85.2324364095011,26.762305438366383],[85.24968545890559,26.759878761195615],[85.25991794584046,26.75563207614676],[85.30698738574085,26.751992060390606],[85.3192663700627,26.749262048573485],[85.33446892208022,26.74167868241483],[85.3555186094891,26.760182095841962],[85.36165810165002,26.762912107659076],[85.37072116150662,26.75836208796388],[85.3771530104371,26.76260877301273],[85.38446192967629,26.7741354895739],[85.39235556245463,26.77534882815928],[85.40492690354604,26.785662206135065],[85.40785047124172,26.791425564415647],[85.41837531494615,26.79021222583026],[85.42480716387664,26.78626887542776],[85.43270079665497,26.79021222583026],[85.45111927313773,26.781718855732557],[85.4786008094771,26.79415557623276],[85.48123202040321,26.801738942391424],[85.49526514534246,26.79718892269623],[85.49760399949899,26.812052320367208],[85.50783648643386,26.81690567470875],[85.51982311398615,26.814478997537975],[85.54321165555156,26.83844243459935],[85.55373649925599,26.834499084196842],[85.55782949402995,26.844205792879933],[85.56601548357784,26.841172446416465],[85.57244733250832,26.857552517319178],[85.58238746267364,26.858765855904558],[85.58560338713887,26.847239139343394],[85.60694543131731,26.857552517319178],[85.62390212395223,26.873932588221884],[85.63442696765668,26.872112580343803],[85.642320600435,26.853305832270323],[85.68091169401794,26.843295788940893],[85.70430023558336,26.832375741672415],[85.72125692821828,26.820242355818557],[85.73441298284882,26.795975584110842],[85.73499769638796,26.778078839976402],[85.72885820422704,26.74986871786618],[85.7338282693097,26.737431997365974],[85.72944291776618,26.733488646963472],[85.72798113391835,26.717715245353453],[85.7247652094531,26.709828544548444],[85.72330342560525,26.68738178071881],[85.7256422797618,26.670698375169756],[85.73353591254013,26.66463168224282],[85.73733655054451,26.649161615279155],[85.74873846455765,26.63884823730337],[85.75926330826209,26.636421560132604],[85.76978815196652,26.62974819791298],[85.80165503984941,26.624288174278746],[85.80370153723638,26.614884800242002],[85.81773466217562,26.602751414388145],[85.8305983600366,26.601538075802758],[85.83118307357574,26.611548119132195],[85.85135569067592,26.608818107315074],[85.85807989637597,26.590011359241593],[85.84872447974979,26.576967969448695],[85.84930919328893,26.569081268643686],[85.85807989637597,26.569081268643686],[85.86918945361954,26.577877973387736],[85.88205315148052,26.583944666314665],[85.8876079301023,26.583034662375624],[85.89287035195451,26.595168048229482],[85.91392003936339,26.608818107315074],[85.92532195337654,26.61003144590046],[85.93087673199832,26.616401473473736],[85.94783342463325,26.613974796302962],[85.9463716407854,26.62186149710797],[85.95572705741158,26.63096153649837],[85.95251113294633,26.637331564071644],[85.95484998710288,26.64673493810838],[85.97414553389434,26.65735165073051],[86.00045764315543,26.654924973559737],[86.01156720039901,26.655228308206084],[86.02764682272523,26.666755024767248],[86.06974619754297,26.65735165073051],[86.07413154908649,26.64976828457185],[86.10190544219543,26.63672489477895],[86.11944684836948,26.630051532559328],[86.13874239516096,26.62883819397394],[86.13961946546965,26.616704808120083],[86.13640354100441,26.606391430144306],[86.15540673102632,26.61003144590046],[86.16154622318723,26.614884800242002],[86.17207106689168,26.61700814276643],[86.18201119705697,26.613974796302962],[86.19312075430054,26.614581465595656],[86.19692139230493,26.597594725400256],[86.20539973862239,26.596684721461216],[86.21767872294423,26.58849468600986],[86.23434305880959,26.593651374997755],[86.23726662650526,26.601538075802758],[86.24925325405755,26.60912144196142],[86.25071503790538,26.614581465595656],[86.2758577200882,26.617311477412777],[86.2931067694927,26.61306479236392],[86.30772460797108,26.62004148922989],[86.3328672901539,26.619131485290858],[86.34309977708877,26.61700814276643],[86.34163799324094,26.605784760851613],[86.35625583171932,26.60426808761988],[86.39630870915009,26.593651374997755],[86.39572399561095,26.584854670253705],[86.42992973765038,26.573024619046194],[86.4559494901419,26.567867930058306],[86.49892593526835,26.542084485118856],[86.51559027113372,26.539354473301735],[86.52172976329463,26.543601158350583],[86.54161002362524,26.53874780400904],[86.5509654402514,26.530254433911338],[86.55447372148622,26.51599770553306],[86.57172277089072,26.495977618874193],[86.58809474998651,26.49355094170342],[86.6261011300303,26.48050755191052],[86.62873234095642,26.469284169995703],[86.63984189819999,26.463217477068774],[86.69626675472655,26.44896074869049],[86.70035974950049,26.437130697482978],[86.7202400098311,26.43500735495855],[86.72521007491375,26.426817319507194],[86.73719670246602,26.423480638397386],[86.74625976232262,26.430760669909702],[86.75415339510096,26.44683740616606],[86.76350881172712,26.451084091214916],[86.7664323794228,26.459577461312612],[86.79683748345784,26.448354079397795],[86.83367443642337,26.43895070536106],[86.84536870720608,26.447444075458755],[86.85589355091051,26.448657414044142],[86.86027890245403,26.456240780202805],[86.87343495708457,26.454117437678377],[86.89536171480215,26.46685749282493],[86.8912687200282,26.48141755584956],[86.89360757418474,26.488090918069183],[86.92985981361113,26.489607591300917],[86.92869038653286,26.49628095352054],[86.93219866776768,26.516907709472093],[86.94652414947649,26.5208510598746],[86.95938784733747,26.520547725228255],[86.96143434472445,26.52418774098441],[86.97517511289414,26.51994105593556],[86.97926810766808,26.52509774492345],[86.99096237845079,26.522974402399022],[87.0152279903249,26.53207444178942],[87.02019805540755,26.53996114259443],[87.0424171698947,26.568474599350992],[87.04475602405124,26.587281347424472],[87.07194520362104,26.585764674192745],[87.07311463069931,26.576967969448695],[87.07282227392975,26.542084485118856],[87.0804235499385,26.521457729167295],[87.0877324691777,26.471407512520123],[87.09211782072121,26.450174087275876],[87.13918726062161,26.414683933653336],[87.16257580218702,26.403763886384866],[87.18918026821768,26.4052805596166],[87.18567198698287,26.414077264360643],[87.2108146691657,26.41347059506795],[87.22017008579186,26.403157217092172],[87.22894078887889,26.41347059506795],[87.24794397890079,26.413773929714296],[87.26636245538356,26.405583894262946],[87.26431595799659,26.3876871501285],[87.266070098614,26.373733756396568],[87.2894586401794,26.373733756396568],[87.30173762450124,26.366150390237905],[87.31372425205352,26.36766706346964],[87.32220259837098,26.360083697310976],[87.34120578839288,26.347646976810772],[87.35845483779738,26.360993701250017],[87.35348477271472,26.371913748518487],[87.35640834041041,26.387990484774846],[87.36897968150181,26.408010571433714],[87.376288600741,26.407100567494673],[87.38856758506284,26.419233953348538],[87.41838797555876,26.422570634458346],[87.42774339218492,26.422267299812],[87.44353065774158,26.43318734708047],[87.46662684253742,26.44016404394644],[87.49176952472024,26.436220693543937],[87.51661985013351,26.430760669909702],[87.53445361307713,26.421660630519305],[87.54760966770768,26.418323949409498],[87.5528720895599,26.405583894262946],[87.57859948528186,26.395877185579856],[87.59292496699067,26.3922371698237],[87.5926326102211,26.38162045720157],[87.61222051378215,26.381013787908877],[87.61748293563436,26.389810492652927],[87.63268548765188,26.393753843055435],[87.65198103444334,26.39345050840909],[87.65022689382594,26.405887228909293],[87.67800078693487,26.415897272238723],[87.67741607339573,26.435310689604897],[87.69232626864368,26.435614024251244],[87.69817340403505,26.428333992738928],[87.71103710189603,26.427423988799887],[87.73384092992231,26.407707236787367],[87.7393957085441,26.417717280116804],[87.74845876840068,26.41802061476315],[87.75401354702247,26.408010571433714],[87.76483074749648,26.409830579311794],[87.76746195842259,26.41802061476315],[87.77301673704437,26.420750626580265],[87.77272438027481,26.429850665970662],[87.77681737504875,26.4477474101051],[87.79348171091411,26.46867750070301],[87.8171626092491,26.459274126666266],[87.82973395034051,26.44987075262953],[87.82827216649267,26.439860709300092],[87.8487371403624,26.436524028190284],[87.85107599451895,26.445320732934334],[87.86130848145382,26.44896074869049],[87.85838491375814,26.463824146361468],[87.86335497884079,26.468070831410316],[87.8858664500975,26.47656420150802],[87.88820530425404,26.486877579483796],[87.90019193180632,26.477170870800713],[87.90983970520205,26.457454118788192],[87.89873014795847,26.448657414044142],[87.9229957598326,26.446534071519714],[87.92445754368043,26.438344036068365],[87.91627155413255,26.43318734708047],[87.92591932752828,26.42803065809258],[87.92679639783698,26.418627284055844],[87.93235117645877,26.41802061476315],[87.96597220495906,26.397090524165243],[87.99199195745058,26.39254050447005],[87.99199195745058,26.371307079225794],[88.00660979592897,26.360993701250017],[88.03058305103352,26.364937051652518],[88.02765948333783,26.369183736701366],[88.0314601213422,26.377980441445416],[88.02736712656827,26.38162045720157],[88.03818432704227,26.391933835177355],[88.05280216552066,26.40042720527505],[88.05952637122071,26.4092239100191],[88.07765249093391,26.419233953348538],[88.08583848048181,26.431670673848743],[88.09607096741668,26.44016404394644],[88.09694803772538,26.452297429800296],[88.09197797264272,26.46261080777608],[88.10367224342544,26.467464162117622],[88.10454931373414,26.48748424877649],[88.09928689188192,26.496584288166886],[88.09431682679927,26.515694370886713],[88.1030875298863,26.51812104805748],[88.10337988665587,26.539657807948082],[88.11682829805598,26.532681111082113],[88.12969199591696,26.51599770553306],[88.13495441776918,26.52327773704537],[88.1484028291693,26.52418774098441],[88.16652894888249,26.535411122899234],[88.17500729519995,26.53480445360654],[88.17939264674347,26.548151178045785],[88.1954722690697,26.54784784339944],[88.1963493393784,26.54390449299693],[88.21184424816548,26.544511162289623],[88.20833596693068,26.54997118592386],[88.21155189139591,26.561194567838683],[88.2261697298743,26.556341213497134],[88.22558501633517,26.547241174106745],[88.22967801110912,26.535107788252887],[88.19517991230012,26.51417769765498],[88.1799773602826,26.499920969276694],[88.1799773602826,26.487787583422836],[88.18787099306093,26.48475423695937],[88.19576462583926,26.475047528276285],[88.21096717785679,26.473227520398204],[88.21301367524376,26.483540898373988],[88.22412323248733,26.478080874739746],[88.21769138355684,26.465947488885888],[88.2252926595656,26.45381410303203],[88.24371113604836,26.452297429800296],[88.24809648759188,26.43682736283663],[88.26359139637897,26.428333992738928],[88.26446846668767,26.41529060294603],[88.25248183913538,26.41620060688507],[88.24751177405274,26.40740390214102],[88.23932578450484,26.40346055173852],[88.23464807619176,26.394967181640816],[88.23230922203523,26.37949711467715],[88.24663470374404,26.374037091042915],[88.26212961253113,26.37767710679907],[88.26826910469205,26.381317122555224],[88.27440859685296,26.376160433567335],[88.2823022296313,26.357657020140202],[88.28902643533135,26.354017004384048],[88.28084044578347,26.342793622469223],[88.27937866193562,26.332480244493446],[88.26973088853988,26.32793022479825],[88.26651496407464,26.335210256310567],[88.25774426098761,26.335513590956914],[88.25423597975279,26.32702022085921],[88.2469270605136,26.327626890151905],[88.24546527666577,26.314583500359007],[88.22821622726127,26.295776752285526],[88.22383087571777,26.287890051480517],[88.21330603201332,26.283946701078015],[88.21067482108721,26.27788000815108],[88.20131940446105,26.280913354614547],[88.19722640968709,26.27181331522415],[88.18494742536525,26.27393665774858],[88.1791002899739,26.269083303407037],[88.17413022489126,26.25573657896779],[88.16769837596075,26.25785992149222],[88.14430983439534,26.25209656321163],[88.13670855838659,26.24026651200412],[88.1393397693127,26.226919787564874],[88.11565887097771,26.224493110394107],[88.11156587620377,26.21539307100371],[88.10367224342544,26.207809704845047],[88.0913932591036,26.202046346564465],[88.08876204817749,26.190822964649648],[88.0758983503165,26.18263292919829],[88.07209771231213,26.174442893746942],[88.0650811498425,26.17686957091771],[88.05923401445115,26.170499543344434],[88.04900152751628,26.176262901625016],[88.03730725673357,26.17868957879579],[88.02649005625956,26.165342854356545],[88.00924100685506,26.15472614173442],[87.9998855902289,26.13834607083171],[87.99140724391144,26.150479456685567],[87.9791282595896,26.138042736185362],[87.97942061635916,26.12226933457535],[87.9864371788288,26.10649593296533],[87.98146711374613,26.101945913270136],[87.96684927526775,26.097395893574934],[87.98556010852009,26.07767914156242],[87.98205182728528,26.073735791159912],[87.97240405388953,26.077375806916073],[87.96538749141992,26.07403912580626],[87.95164672325024,26.074342460452606],[87.95457029094591,26.065545755708555],[87.95047729617197,26.061299070659707],[87.93498238738488,26.063725747830482],[87.9311817493805,26.06979244075741],[87.93147410615006,26.08192582661127],[87.91656391090211,26.07676913762338],[87.90223842919329,26.065545755708555],[87.892298299028,26.061299070659707],[87.89054415841059,26.049772354098543],[87.87826517408874,26.049469019452197],[87.86423204914949,26.0364256296593],[87.85546134606247,26.035515625720258],[87.85721548667988,26.027932259561595],[87.85458427575375,26.01246219259793],[87.84932185390154,25.995475452402523],[87.84522885912759,25.994262113817136],[87.84522885912759,25.9633219798898],[87.83675051281013,25.960288633426337],[87.83821229665797,25.95209859797498],[87.83353458834489,25.944515231816318],[87.83938172373624,25.938145204243042],[87.83324223157533,25.927831826267266],[87.81950146340563,25.933898519194194],[87.8089766197012,25.92843849555996],[87.8080995493925,25.912058424657246],[87.82271738787088,25.912058424657246],[87.82096324725347,25.90174504668147],[87.82681038264482,25.894161680522807],[87.82242503110132,25.881724960022602],[87.83002630711007,25.870501578107785],[87.85019892421025,25.869591574168744],[87.85984669760597,25.864738219827203],[87.86657090330604,25.867468231644317],[87.88265052563226,25.85927819619296],[87.89171358548886,25.865648223766236],[87.90253078596285,25.861704873363735],[87.9121785593586,25.85108816074161],[87.90165371565416,25.841078117412174],[87.89142122871928,25.83440475519255],[87.90545435365854,25.819844692167926],[87.90340785627157,25.81347466459465],[87.9057467104281,25.784657873191733],[87.90194607242373,25.77707450703307],[87.91977983536735,25.774647829862303],[87.94229130662407,25.768581136935374],[87.94375309047192,25.750987727447274],[87.96129449664596,25.73855100694707],[87.96567984818948,25.72550761715417],[87.98234418405484,25.720047593519936],[87.98468303821139,25.724294278568784],[87.99959323345934,25.720957597458977],[88.00193208761587,25.71580090847109],[88.01362635839858,25.710037550190506],[88.02093527763778,25.70973421554416],[88.01859642348124,25.697600829690302],[88.03087540780308,25.694567483226834],[88.0487091707467,25.696994160397608],[88.0525098087511,25.684860774543743],[88.04578560305103,25.67909741626316],[88.047832100438,25.66908737293373],[88.04549324628147,25.656043983140833],[88.04023082442924,25.647247278396783],[88.04549324628147,25.635113892542925],[88.03496840257702,25.622980506689068],[88.03847668381184,25.61479047123771],[88.03204483488135,25.60387042396924],[88.02561298595086,25.585670345188454],[88.02941362395524,25.564740254590546],[88.0270747697987,25.555943549846496],[88.03555311611616,25.55260686873669],[88.03730725673357,25.538350140358403],[88.04637031659017,25.539866813590137],[88.05747987383374,25.534406789955902],[88.05952637122071,25.528340097028973],[88.07122064200342,25.517420049760496],[88.06654293369034,25.5128700300653],[88.07180535554255,25.50619666784568],[88.07151299877299,25.4958832898699],[88.06537350661208,25.49011993158932],[88.04490853274233,25.48920992765028],[88.03058305103352,25.491333270174707],[88.02298177502476,25.497703297747982],[88.00953336362464,25.502556652089524],[88.00602508238983,25.49709662845529],[87.9955002386854,25.499826640272403],[87.98556010852009,25.516206711175116],[87.99345374129841,25.52166673480935],[87.98468303821139,25.526520089150893],[87.97649704866349,25.52470008127281],[87.96363335080251,25.539260144297444],[87.93673652800229,25.53562012854129],[87.92767346814568,25.537136801773016],[87.91685626767168,25.531373443492434],[87.90867027812378,25.519240057638577],[87.91071677551076,25.51499337258973],[87.90194607242373,25.505286663906638],[87.89025180164101,25.518330053699536],[87.8832352391714,25.51681338046781],[87.88528173655837,25.50710667178472],[87.8741721793148,25.50194998279683],[87.86774033038431,25.493759947345474],[87.86481676268863,25.479806553613535],[87.86890975746257,25.473133191393913],[87.85458427575375,25.466763163820637],[87.83908936696668,25.467673167759678],[87.8396740805058,25.461303140186402],[87.83002630711007,25.46069647089371],[87.83090337741878,25.452203100796012],[87.82271738787088,25.437036368478687],[87.81160783062731,25.435519695246953],[87.80225241400115,25.44461973463735],[87.7873422187532,25.45038309291793],[87.78354158074882,25.437036368478687],[87.77418616412264,25.42368964403944],[87.77623266150962,25.41276959677097],[87.76746195842259,25.395782856575565],[87.76600017457474,25.38516614395344],[87.76980081257912,25.379099451026512],[87.7791562292053,25.373032758099583],[87.79231228383584,25.373639427392277],[87.79026578644887,25.344215966696666],[87.78821928906189,25.338452608416084],[87.79728234891849,25.32510588397684],[87.80517598169682,25.324499214684145],[87.8262256691057,25.313579167415675],[87.83908936696668,25.30114244691547],[87.85546134606247,25.296895761866622],[87.86247790853209,25.274145663390634],[87.85341484867548,25.26261894682947],[87.85516898929289,25.255338915317154],[87.84025879404494,25.24987889168292],[87.83616579927099,25.241385521585215],[87.82739509618396,25.235318828658286],[87.80108298692286,25.246542210573104],[87.79465113799239,25.252305568853693],[87.77623266150962,25.25655225390254],[87.76716960165302,25.261102273597736],[87.7429039897789,25.264135620061204],[87.713083599283,25.258068927134275],[87.71162181543515,25.27444899803698],[87.69320333895239,25.28506571065911],[87.69641926341764,25.2941657500495],[87.69554219310893,25.306602470549706],[87.69203391187412,25.311455824891247],[87.67303072185223,25.31297249812298],[87.67361543539135,25.30811914378144],[87.65490460213903,25.307512474488746],[87.63034663349534,25.319645860342604],[87.62508421164311,25.313275832769328],[87.61748293563436,25.31812918711087],[87.61192815701257,25.312669163476635],[87.60432688100381,25.315399175293756],[87.58415426390364,25.331475911550115],[87.5917555399124,25.3417892895259],[87.5745064905079,25.34057595094051],[87.5709982092731,25.333295919428195],[87.55170266248163,25.332385915489155],[87.54673259739897,25.315702509940103],[87.54263960262503,25.293559080756808],[87.54351667293373,25.282639033488337],[87.53240711569016,25.280212356317563],[87.51954341782918,25.291739072878727],[87.50434086581166,25.29325574611046],[87.49293895179852,25.306602470549706],[87.4876765299463,25.285975714598145],[87.49527780595506,25.27141565157352],[87.50083258457684,25.266865631878318],[87.49907844395943,25.259282265719662],[87.49060009764197,25.261405608244083],[87.4759822591636,25.23683550189002],[87.477736399781,25.19436865140152],[87.46253384776348,25.194975320694205],[87.44703893897639,25.202862021499215],[87.42657396510666,25.210748722304224],[87.39149115275853,25.227735462499624],[87.38155102259323,25.22318544280443],[87.37044146534966,25.20710870654807],[87.34880706440165,25.214692072706725],[87.33418922592327,25.21620874593846],[87.32717266345364,25.223488777450775],[87.31810960359704,25.194671986047865],[87.32074081452315,25.190728635645357],[87.31547839267093,25.180111923023233],[87.31430896559266,25.160395171010713],[87.31197011143612,25.14886845444955],[87.30787711666217,25.147048446571468],[87.2976446297273,25.11610831264413],[87.29530577557075,25.102458253558538],[87.29530577557075,25.0885048598266],[87.26987073661837,25.093964883460835],[87.26022296322263,25.104581596082966],[87.25028283305733,25.105794934668346],[87.23771149196592,25.0924482102291],[87.23741913519635,25.08577484800948],[87.2143229504005,25.09123487164372],[87.21315352332223,25.082741501546018],[87.20028982546125,25.077888147204476],[87.19239619268293,25.066968099936],[87.18187134897849,25.066968099936],[87.16696115373054,25.03997131641117],[87.15672866679567,25.027231261264618],[87.14591146632166,25.018737891166914],[87.15117388817389,24.987191087946883],[87.14620382309124,24.972934359568598],[87.14883503401734,24.960194304422046],[87.1438649689347,24.946544245336455],[87.15175860171303,24.931680847665476],[87.14240318508685,24.9213674696897],[87.14240318508685,24.913784103531036],[87.15175860171303,24.903774060201606],[87.1555592397174,24.884967312128126],[87.14678853663037,24.87071058374984],[87.12047642736928,24.855240516786168],[87.10995158366484,24.85706052466425],[87.10030381026911,24.847657150627505],[87.10030381026911,24.838860445883462],[87.09124075041251,24.825513721444217],[87.07749998224283,24.82521038679787],[87.07340698746887,24.80852698124881],[87.09153310718207,24.803976961553616],[87.09357960456904,24.7927535796388],[87.0786694093211,24.777586847321473],[87.0786694093211,24.768183473284736],[87.08422418794288,24.75605008743088],[87.0696063494645,24.74422003622336],[87.0786694093211,24.73603000077201],[87.0804235499385,24.72632329208892],[87.07252991716018,24.714796575527757],[87.06814456561666,24.703269858966593],[87.07019106300363,24.697203166039664],[87.06200507345574,24.68870979594196],[87.0596662192992,24.676273075441756],[87.05440379744698,24.669599713222134],[87.0506031594426,24.651096299795],[87.05235730006001,24.64138959111191],[87.04621780789908,24.629862874550746],[87.05089551621217,24.608932783952838],[87.03627767773378,24.613786138294387],[87.02312162310324,24.61560614617246],[87.02195219602496,24.629256205258052],[87.01084263878138,24.631076213136133],[87.00645728723788,24.622886177684776],[86.996224800303,24.620156165867662],[86.9927165190682,24.625919524148244],[86.97751396705067,24.639569583233836],[86.96932797750277,24.63532289818498],[86.95383306871568,24.631986217075173],[86.95354071194612,24.639569583233836],[86.9582184202592,24.64745628403884],[86.9374610896199,24.65018629585596],[86.9447700088591,24.63532289818498],[86.93249102453724,24.6295595399044],[86.92576681883719,24.611966130416306],[86.91962732667626,24.602259421733216],[86.9093948397414,24.595282724867253],[86.90734834235442,24.588306028001284],[86.91290312097621,24.57708264608646],[86.91728847251973,24.561309244476448],[86.91758082928929,24.54917585862259],[86.91436490482405,24.54219916175662],[86.90354770435005,24.547659185390856],[86.89623878511085,24.557972563366633],[86.88805279556296,24.56403925629356],[86.87665088154982,24.56798260669607],[86.86378718368884,24.566769268110683],[86.85998654568445,24.556455890134906],[86.84302985304953,24.557972563366633],[86.84273749627997,24.574352634269346],[86.80560818654487,24.569499279927804],[86.80268461884918,24.573745964976652],[86.81174767870579,24.582542669720702],[86.80765468393184,24.59073270517205],[86.80999353808838,24.598316071330714],[86.80356168915789,24.60195608708687],[86.78894385067952,24.61863949263593],[86.77315658512285,24.62167283909939],[86.75883110341404,24.619246161928622],[86.7538610383314,24.621369504453043],[86.7483062597096,24.604079429611296],[86.75035275709658,24.598012736684367],[86.73368842123122,24.579509323257234],[86.72316357752678,24.58405934295243],[86.69977503596137,24.57313929568396],[86.69041961933519,24.575565972854733],[86.67024700223502,24.564949260232602],[86.64948967159572,24.572229291744918],[86.64744317420875,24.579205988610887],[86.62317756233463,24.589519366586664],[86.62113106494765,24.600136079208795],[86.61089857801278,24.604079429611296],[86.60300494523446,24.60195608708687],[86.5889718202952,24.58860936264763],[86.58926417706478,24.579205988610887],[86.58020111720818,24.566465933464336],[86.5664603490385,24.566465933464336],[86.5582743594906,24.55827589801298],[86.56382913811238,24.552512539732398],[86.55330429440795,24.543412500342008],[86.53634760177302,24.536132468829692],[86.52991575284253,24.54037915387854],[86.5112049195902,24.523695748329487],[86.50068007588575,24.50367566167062],[86.50272657327274,24.493362283694836],[86.49190937279873,24.475768874206743],[86.49424822695528,24.473038862389622],[86.48810873479435,24.461512145828458],[86.49541765403355,24.45635545684057],[86.49687943788138,24.44422207098671],[86.49132465925959,24.428145334730345],[86.46852083123332,24.42632532685227],[86.46676669061591,24.410248590595906],[86.471444398929,24.402058555144556],[86.47202911246812,24.393261850400506],[86.46705904738548,24.38112846454665],[86.45799598752888,24.37809511808318],[86.4559494901419,24.372028425156252],[86.44454757612877,24.367781740107404],[86.43314566211562,24.379611791314915],[86.41355775855459,24.37991512596126],[86.40390998515886,24.38901516535166],[86.39747813622836,24.403271893729936],[86.3781825894369,24.416315283522835],[86.36970424311943,24.418135291400915],[86.36765774573246,24.424201984327844],[86.35888704264542,24.42875200402304],[86.34982398278883,24.447255417450172],[86.33432907400174,24.442705397754978],[86.31737238136682,24.44149205916959],[86.3129870298233,24.447255417450172],[86.29983097519275,24.447862086742866],[86.29456855334054,24.456052122194222],[86.28316663932739,24.464848826938272],[86.27615007685777,24.465758830877313],[86.28170485547956,24.479105555316558],[86.29047555856658,24.47880222067021],[86.29953861842318,24.50003564591446],[86.30889403504935,24.50974235459755],[86.30567811058411,24.52763909873199],[86.30012333196233,24.536132468829692],[86.30743225120152,24.54644584680547],[86.30275454288844,24.55918590195202],[86.30713989443194,24.571319287805878],[86.31766473813639,24.577385980732807],[86.31971123552336,24.58587935083051],[86.30801696474064,24.588002693354937],[86.303046899658,24.58314933901339],[86.29369148303184,24.58769935870859],[86.26445580607506,24.58405934295243],[86.24369847543576,24.588306028001284],[86.23492777234873,24.602562756379562],[86.21417044170943,24.613786138294387],[86.21475515524855,24.595282724867253],[86.19458253814838,24.585576016184163],[86.18054941320914,24.583756008306082],[86.1609615096481,24.588002693354937],[86.1501443091741,24.595282724867253],[86.15160609302194,24.60195608708687],[86.14137360608706,24.607112776074764],[86.13260290300003,24.60559610284303],[86.12090863221732,24.61863949263593],[86.12149334575646,24.631682882428827],[86.11535385359554,24.643816268282684],[86.12266277283473,24.65291630767308],[86.12704812437825,24.666263032112326],[86.1247092702217,24.671116386453868],[86.13231054623046,24.678396417966184],[86.12938697853478,24.685069780185806],[86.12821755145652,24.69871983927139],[86.10862964789548,24.72723329602796],[86.10512136666067,24.73694000471105],[86.08787231725617,24.74725338268683],[86.06565320276903,24.751500067735677],[86.05571307260372,24.74604004410144],[86.04255701797318,24.74725338268683],[86.05688249968199,24.761206776418767],[86.0586366402994,24.77182348904089],[86.0551283590646,24.7797101898459],[86.03758695289054,24.776373508736086],[86.03027803365134,24.769396811870124],[86.0171219790208,24.76393678823588],[86.00513535146851,24.76181344571146],[85.99636464838149,24.753320075613757],[85.97999266928569,24.748770055918563],[85.96917546881168,24.732996654308543],[85.95835826833769,24.73238998501585],[85.93760093769838,24.734816662186624],[85.92502959660698,24.740883355113553],[85.90807290397204,24.757870095308952],[85.89988691442414,24.773036827626278],[85.88702321656316,24.783350205602055],[85.88936207071971,24.79245024499245],[85.86714295623256,24.804280296199963],[85.85749518283683,24.80731364266343],[85.84287734435844,24.80852698124881],[85.82036587310174,24.807616977309777],[85.810718099706,24.799123607212074],[85.80954867262773,24.793966918224186],[85.77534293058831,24.79851693791938],[85.76861872488826,24.807920311956124],[85.74406075624456,24.81914369387094],[85.73616712346623,24.820963701749022],[85.73090470161402,24.81338033559036],[85.72915056099662,24.79851693791938],[85.72359578237483,24.797000264687647],[85.72184164175742,24.785473548126483],[85.71248622513126,24.781226863077634],[85.70459259235292,24.767273469345696],[85.7040078788138,24.751500067735677],[85.709270300666,24.746343378747788],[85.70634673297033,24.732693319662197],[85.7083932303573,24.726019957442574],[85.7002072408094,24.71722325269853],[85.68909768356583,24.698113169978704],[85.68295819140491,24.692653146344462],[85.64933716290463,24.68476644553946],[85.65430722798729,24.67414973291733],[85.66629385553955,24.661713012417124],[85.66249321753517,24.649579626563266],[85.67594162893529,24.61742615405054],[85.67389513154832,24.597406067391674],[85.67740341278312,24.59073270517205],[85.66746328261783,24.57890265396454],[85.65167601706116,24.57495930356204],[85.62477919426095,24.58193600042801],[85.61483906409563,24.58072266184262],[85.61220785316954,24.587396024062244],[85.60226772300423,24.595282724867253],[85.59466644699548,24.59467605557456],[85.58063332205623,24.60074274850149],[85.57215497573875,24.596192728806287],[85.56601548357784,24.587396024062244],[85.57186261896919,24.56191591376914],[85.56689255388653,24.557972563366633],[85.5563677101821,24.557972563366633],[85.54467343939939,24.563432587000868],[85.54555050970811,24.547962520037203],[85.54087280139501,24.53036911054911],[85.52391610876009,24.521269071158713],[85.5183613301383,24.526122425500255],[85.50783648643386,24.524909086914867],[85.5092982702817,24.537042472768732],[85.49789635626857,24.546749181451816],[85.49175686410764,24.547962520037203],[85.47129189023791,24.544625838927388],[85.4595976194552,24.536132468829692],[85.44936513252033,24.537042472768732],[85.43211608311583,24.53158244913449],[85.4125281795548,24.540985823171233],[85.39732562753727,24.544929173573735],[85.39206320568506,24.53036911054911],[85.37422944274142,24.525212421561214],[85.33593070592806,24.52339241368314],[85.32248229452794,24.520055732573326],[85.2912001201842,24.523695748329487],[85.2812599900189,24.520359067219673],[85.28476827125371,24.494272287633876],[85.26693450831009,24.491238941170415],[85.24910074536646,24.490632271877722],[85.24003768550986,24.481532232487325],[85.24149946935769,24.475768874206743],[85.23214405273153,24.473038862389622],[85.2260045605706,24.46333215370654],[85.20670901377915,24.46727550410904],[85.20261601900519,24.46120881118211],[85.18068926128761,24.462422149767498],[85.17279562850929,24.45908546865769],[85.16080900095702,24.46029880724307],[85.15408479525695,24.455142118255182],[85.15437715202653,24.448165421389213],[85.16373256865269,24.44422207098671],[85.17425741235712,24.425111988266885],[85.16490199573096,24.419045295339956],[85.16051664418744,24.412068598473986],[85.12251026414364,24.401451885851863],[85.11549370167401,24.390531838583385],[85.10263000381303,24.38416181101011],[85.10409178766088,24.378398452729527],[85.09824465226953,24.373545098387986],[85.0731019700867,24.37809511808318],[85.083042100252,24.399631877973782],[85.08011853255633,24.41449527564476],[85.08099560286503,24.432998689071894],[85.06783954823449,24.42056196857169],[85.06286948315183,24.406911909486098],[85.04883635821258,24.40782191342514],[85.0424045092821,24.414191940998414],[85.03158730880808,24.414798610291108],[85.02077010833409,24.40994525594956],[85.00176691831219,24.39690186615666],[84.98364079859898,24.387195157473577],[84.9745777387424,24.374758436973373],[84.95528219195091,24.371421755863558],[84.93744842900729,24.37991512596126],[84.9228305905289,24.377488448790487],[84.91639874159841,24.37324176374164],[84.903827400507,24.3723317598026],[84.9003191192722,24.376881779497793],[84.90908982235922,24.383555141717416],[84.90411975727658,24.395385192924934],[84.89271784326343,24.405091901608017],[84.8912560594156,24.414191940998414],[84.882192999559,24.424808653620538],[84.88745542141122,24.43330202371824],[84.88453185371554,24.440885389876897],[84.88570128079381,24.458782134011344],[84.87985414540245,24.46606216552366],[84.87254522616327,24.466365500170006],[84.87108344231542,24.45817546471865],[84.85266496583266,24.46515216158462],[84.84886432782828,24.45453544896249],[84.84009362474126,24.45210877179172],[84.84067833828038,24.468792177340774],[84.83278470550206,24.470308850572508],[84.83541591642816,24.485172248243487],[84.83366177581075,24.49184561046311],[84.83833948412385,24.49760896874369],[84.83921655443254,24.51186569712197],[84.82547578626287,24.52551575620756],[84.81115030455405,24.52157240580506],[84.80179488792788,24.530672445195457],[84.79740953638436,24.5224824097441],[84.79010061714517,24.519145728634285],[84.78951590360603,24.50761901207312],[84.74800124232743,24.496092295511957],[84.74361589078391,24.485172248243487],[84.72899805230553,24.47000551592616],[84.71028721905319,24.471218854511548],[84.70268594304443,24.462422149767498],[84.6848521801008,24.45453544896249],[84.67549676347464,24.42632532685227],[84.67461969316594,24.4108552598886],[84.66526427653977,24.39113850787608],[84.65649357345274,24.396598531510314],[84.63632095635256,24.400541881912822],[84.63164324803948,24.404485232315324],[84.62199547464374,24.403575228376283],[84.61439419863498,24.399328543327435],[84.579896099826,24.410551925242252],[84.56820182904329,24.409338586656865],[84.56206233688238,24.396598531510314],[84.57404896443464,24.38901516535166],[84.55913876918669,24.376275110205107],[84.54978335256052,24.373545098387986],[84.53224194638646,24.378398452729527],[84.52756423807338,24.374455102327026],[84.53428844377343,24.365051728290283],[84.53370373023431,24.359591704656047],[84.5246406703777,24.35018833061931],[84.53165723284732,24.33957161799718],[84.52405595683857,24.333808259716598],[84.51586996729067,24.3168215195212],[84.51060754543846,24.31651818487485],[84.51002283189932,24.306204806899068],[84.50183684235142,24.288308062764628],[84.49160435541656,24.2861847202402],[84.48926550126001,24.294374755691557],[84.49101964187741,24.3037781297283],[84.48868078772088,24.315304846289465],[84.49686677726878,24.316214850228505],[84.50768397774277,24.324708220326208],[84.50534512358624,24.331381582545824],[84.49540499342093,24.325314889618895],[84.48546486325563,24.31287816911869],[84.46529224615546,24.319248196691966],[84.46558460292503,24.331381582545824],[84.46002982430325,24.336841606180066],[84.45155147798579,24.332898255777557],[84.42465465518555,24.329864909314097],[84.42290051456814,24.33562826759468],[84.42757822288124,24.355648354253546],[84.40038904331143,24.366568401522017],[84.38664827514175,24.385375149595497],[84.37816992882429,24.387498492119924],[84.37319986374163,24.383555141717416],[84.36325973357634,24.388408496058965],[84.34162533262833,24.393565185046853],[84.344548900324,24.399328543327435],[84.33343934308043,24.404485232315324],[84.33080813215432,24.411461929181293],[84.32086800198903,24.42359531503515],[84.33694762431524,24.42875200402304],[84.32174507229772,24.44634541351114],[84.2974794604236,24.4493787599746],[84.29163232503225,24.466365500170006],[84.30361895258453,24.480622228548285],[84.31677500721507,24.486688921475213],[84.32759220768908,24.487295590767907],[84.3272998509195,24.500642315207152],[84.32232978583686,24.508225681365815],[84.32232978583686,24.517022386109865],[84.31238965567155,24.523999082975834],[84.31092787182372,24.534919130244305],[84.30274188227582,24.542502496402967],[84.29806417396274,24.558882567305673],[84.28958582764528,24.56282591770818],[84.28461576256262,24.559489236598367],[84.27058263762338,24.56009590589106],[84.27730684332343,24.543715834988355],[84.26941321054511,24.54310916569566],[84.2568418694537,24.527032429439295],[84.23637689558396,24.54917585862259],[84.22029727325773,24.54553584286643],[84.2188354894099,24.533705791658917],[84.20948007278373,24.53431246095161],[84.20918771601416,24.540985823171233],[84.19924758584887,24.54735585074451],[84.19983229938799,24.55402921296413],[84.18726095829658,24.552815874378744],[84.1843373906009,24.544929173573735],[84.17322783335733,24.544625838927388],[84.17410490366603,24.537952476707765],[84.18404503383134,24.51368570500005],[84.17732082813129,24.50458566560966],[84.16971955212253,24.503372327024273],[84.15334757302674,24.51186569712197],[84.15217814594845,24.515809047524478],[84.16416477350074,24.528245768024682],[84.15480935687457,24.53522246489065],[84.14428451317013,24.538255811354112],[84.13434438300483,24.52430241762218],[84.14048387516576,24.500642315207152],[84.13025138823089,24.49760896874369],[84.12528132314823,24.49184561046311],[84.1246966096091,24.480622228548285],[84.11095584143942,24.476678878145783],[84.10364692220023,24.48092556319463],[84.08873672695228,24.500338980560805],[84.08464373217832,24.51368570500005],[84.08961379726097,24.535525799536998],[84.0785042400174,24.540075819232193],[84.07265710462605,24.554635882256825],[84.07294946139561,24.56707260275703],[84.06125519061291,24.57313929568396],[84.06183990415204,24.586486020123203],[84.05423862814328,24.58496934689147],[84.05453098491284,24.594372720928213],[84.04809913598237,24.60559610284303],[84.04897620629106,24.61166279576996],[84.03435836781267,24.622886177684776],[84.03377365427355,24.6295595399044],[84.02090995641257,24.63835624464845],[84.00775390178202,24.642906264343644],[83.99401313361234,24.631682882428827],[83.97588701389914,24.59194604375744],[83.9554220400294,24.56798260669607],[83.93349528231182,24.547659185390856],[83.908352600129,24.540985823171233],[83.88876469656796,24.537952476707765],[83.87297743101131,24.53158244913449],[83.86274494407644,24.536739138122385],[83.84286468374584,24.532795787719877],[83.81655257448475,24.529155771963723],[83.79930352508025,24.52945910661007],[83.79024046522366,24.52339241368314],[83.7545729393364,24.509439019951202],[83.7463869497885,24.510045689243896],[83.72533726237963,24.50367566167062],[83.71715127283173,24.503372327024273],[83.70604171558816,24.507922346719468],[83.68089903340534,24.513079035707356],[83.65254042675727,24.514899043585437],[83.62885952842228,24.512472366414663],[83.59699264053941,24.512472366414663],[83.57594295313054,24.515809047524478],[83.55255441156511,24.523089079036794],[83.5373518595476,24.52460575226852],[83.50314611750818,24.52551575620756]]]},"properties":{"name":"Bihar","lgd":10,"census":"10","id":"IN-BR-S-10","level":"state","parent_id":null,"mausam_level":"state","source_code":"10","parent_code":null}}]}
